TRANSPORTER-16 OBJECT BZ
1 68487U 26067BZ  26105.86270677  .00001595  00000+0  16200-3 0  9992
2 68487  97.7496  65.1046 0003430  90.6606 269.5006 14.92212167  2438
