{
  "norad_id": 68487,
  "name": "TRANSPORTER-16 OBJECT BZ",
  "history": [
    {
      "epoch": "2026-04-15T20:42:17.864064Z",
      "apogee_km": 593.4305169021382,
      "perigee_km": 588.6482680616164,
      "latitude_deg": -1.1197443050575566e-05,
      "longitude_deg": -89.48851006793868,
      "height_km": 594.103645521076,
      "semi_major_axis_km": 6969.176392481877,
      "eccentricity": 0.0003431,
      "inclination_deg": 97.7496,
      "raan_deg": 65.1046,
      "arg_perigee_deg": 90.6606,
      "mean_anomaly_deg": 269.5006,
      "mean_motion_rev_day": 14.92212167
    }
  ]
}